[{"OBJECT_NAME":"QIANFAN-99","OBJECT_ID":"2025-233J","EPOCH":"2026-03-09T22:07:43.096512","MEAN_MOTION":13.51005078,"ECCENTRICITY":0.00023755,"INCLINATION":88.9943,"RA_OF_ASC_NODE":53.2192,"ARG_OF_PERICENTER":86.7048,"MEAN_ANOMALY":273.4375,"EPHEMERIS_TYPE":0,"CLASSIFICATION_TYPE":"U","NORAD_CAT_ID":66041,"ELEMENT_SET_NO":999,"REV_AT_EPOCH":1978,"BSTAR":4.3072856e-5,"MEAN_MOTION_DOT":4.0e-7,"MEAN_MOTION_DDOT":0},{"OBJECT_NAME":"SL-16 DEB","OBJECT_ID":"1996-051D","EPOCH":"2026-03-09T23:38:25.914624","MEAN_MOTION":13.74754832,"ECCENTRICITY":0.01966978,"INCLINATION":71.0282,"RA_OF_ASC_NODE":306.4008,"ARG_OF_PERICENTER":227.8769,"MEAN_ANOMALY":235.2794,"EPHEMERIS_TYPE":0,"CLASSIFICATION_TYPE":"U","NORAD_CAT_ID":24300,"ELEMENT_SET_NO":999,"REV_AT_EPOCH":47965,"BSTAR":0.00011019639,"MEAN_MOTION_DOT":7.7e-7,"MEAN_MOTION_DDOT":0}]
